[
  {
    "OBJECT_NAME": "STARLINK-1556",
    "OBJECT_ID": "2020-055G",
    "EPOCH": "2026-03-18T14:00:00.999360",
    "MEAN_MOTION": 15.29340997,
    "ECCENTRICITY": 0.0001864,
    "INCLINATION": 53.1555,
    "RA_OF_ASC_NODE": 85.2572,
    "ARG_OF_PERICENTER": 68.2653,
    "MEAN_ANOMALY": 129.1051,
    "EPHEMERIS_TYPE": 0,
    "CLASSIFICATION_TYPE": "U",
    "NORAD_CAT_ID": 46033,
    "ELEMENT_SET_NO": 999,
    "REV_AT_EPOCH": 573,
    "BSTAR": 0.00020924,
    "MEAN_MOTION_DOT": 5.684e-05,
    "MEAN_MOTION_DDOT": 0
  },
  {
    "OBJECT_NAME": "STARLINK-1557",
    "OBJECT_ID": "2020-055H",
    "EPOCH": "2026-03-18T14:00:00.999360",
    "MEAN_MOTION": 15.29360074,
    "ECCENTRICITY": 0.000191,
    "INCLINATION": 53.155,
    "RA_OF_ASC_NODE": 85.1583,
    "ARG_OF_PERICENTER": 69.7898,
    "MEAN_ANOMALY": 161.9518,
    "EPHEMERIS_TYPE": 0,
    "CLASSIFICATION_TYPE": "U",
    "NORAD_CAT_ID": 46034,
    "ELEMENT_SET_NO": 999,
    "REV_AT_EPOCH": 580,
    "BSTAR": -0.00011687,
    "MEAN_MOTION_DOT": -3.727e-05,
    "MEAN_MOTION_DDOT": 0
  },
  {
    "OBJECT_NAME": "STARLINK-1558",
    "OBJECT_ID": "2020-055J",
    "EPOCH": "2026-03-18T14:00:00.999360",
    "MEAN_MOTION": 15.29355373,
    "ECCENTRICITY": 0.0001203,
    "INCLINATION": 53.1553,
    "RA_OF_ASC_NODE": 85.342,
    "ARG_OF_PERICENTER": 77.049,
    "MEAN_ANOMALY": 13.7468,
    "EPHEMERIS_TYPE": 0,
    "CLASSIFICATION_TYPE": "U",
    "NORAD_CAT_ID": 46035,
    "ELEMENT_SET_NO": 999,
    "REV_AT_EPOCH": 568,
    "BSTAR": 0.00019866,
    "MEAN_MOTION_DOT": 5.381e-05,
    "MEAN_MOTION_DDOT": 0
  },
  {
    "OBJECT_NAME": "STARLINK-1560",
    "OBJECT_ID": "2020-055K",
    "EPOCH": "2026-03-18T09:46:36.326496",
    "MEAN_MOTION": 15.29371009,
    "ECCENTRICITY": 0.0001876,
    "INCLINATION": 53.1559,
    "RA_OF_ASC_NODE": 86.0134,
    "ARG_OF_PERICENTER": 79.7241,
    "MEAN_ANOMALY": 280.3971,
    "EPHEMERIS_TYPE": 0,
    "CLASSIFICATION_TYPE": "U",
    "NORAD_CAT_ID": 46036,
    "ELEMENT_SET_NO": 999,
    "REV_AT_EPOCH": 31023,
    "BSTAR": 0.00020763,
    "MEAN_MOTION_DOT": 5.642e-05,
    "MEAN_MOTION_DDOT": 0
  },
  {
    "OBJECT_NAME": "STARLINK-1569",
    "OBJECT_ID": "2020-055N",
    "EPOCH": "2026-03-18T14:00:00.999360",
    "MEAN_MOTION": 15.29070579,
    "ECCENTRICITY": 0.0001424,
    "INCLINATION": 53.1506,
    "RA_OF_ASC_NODE": 85.3895,
    "ARG_OF_PERICENTER": 65.263,
    "MEAN_ANOMALY": 340.2689,
    "EPHEMERIS_TYPE": 0,
    "CLASSIFICATION_TYPE": "U",
    "NORAD_CAT_ID": 46039,
    "ELEMENT_SET_NO": 999,
    "REV_AT_EPOCH": 568,
    "BSTAR": 0.0025408,
    "MEAN_MOTION_DOT": 0.00073041,
    "MEAN_MOTION_DDOT": 0
  },
  {
    "OBJECT_NAME": "STARLINK-1591",
    "OBJECT_ID": "2020-055U",
    "EPOCH": "2026-03-18T14:00:00.999360",
    "MEAN_MOTION": 15.27752206,
    "ECCENTRICITY": 0.0001468,
    "INCLINATION": 53.1454,
    "RA_OF_ASC_NODE": 85.3619,
    "ARG_OF_PERICENTER": 105.0091,
    "MEAN_ANOMALY": 135.27,
    "EPHEMERIS_TYPE": 0,
    "CLASSIFICATION_TYPE": "U",
    "NORAD_CAT_ID": 46045,
    "ELEMENT_SET_NO": 999,
    "REV_AT_EPOCH": 573,
    "BSTAR": 0.0023217,
    "MEAN_MOTION_DOT": 0.00063986,
    "MEAN_MOTION_DDOT": 0
  },
  {
    "OBJECT_NAME": "STARLINK-1525",
    "OBJECT_ID": "2020-055AR",
    "EPOCH": "2026-03-18T14:00:00.999360",
    "MEAN_MOTION": 15.23857766,
    "ECCENTRICITY": 0.0001657,
    "INCLINATION": 53.057,
    "RA_OF_ASC_NODE": 55.767,
    "ARG_OF_PERICENTER": 93.0378,
    "MEAN_ANOMALY": 315.7543,
    "EPHEMERIS_TYPE": 0,
    "CLASSIFICATION_TYPE": "U",
    "NORAD_CAT_ID": 46066,
    "ELEMENT_SET_NO": 999,
    "REV_AT_EPOCH": 579,
    "BSTAR": 0.00798,
    "MEAN_MOTION_DOT": 0.00200038,
    "MEAN_MOTION_DDOT": 0
  },
  {
    "OBJECT_NAME": "STARLINK-1536",
    "OBJECT_ID": "2020-055AV",
    "EPOCH": "2026-03-18T02:38:07.554624",
    "MEAN_MOTION": 15.06383617,
    "ECCENTRICITY": 0.00013611,
    "INCLINATION": 53.0562,
    "RA_OF_ASC_NODE": 58.8196,
    "ARG_OF_PERICENTER": 91.3227,
    "MEAN_ANOMALY": 268.7918,
    "EPHEMERIS_TYPE": 0,
    "CLASSIFICATION_TYPE": "U",
    "NORAD_CAT_ID": 46070,
    "ELEMENT_SET_NO": 999,
    "REV_AT_EPOCH": 31058,
    "BSTAR": 0.00011180206,
    "MEAN_MOTION_DOT": 1.384e-05,
    "MEAN_MOTION_DDOT": 0
  },
  {
    "OBJECT_NAME": "STARLINK-1542",
    "OBJECT_ID": "2020-055AY",
    "EPOCH": "2026-03-18T02:27:31.141728",
    "MEAN_MOTION": 15.06400448,
    "ECCENTRICITY": 0.00014478,
    "INCLINATION": 53.0558,
    "RA_OF_ASC_NODE": 58.8518,
    "ARG_OF_PERICENTER": 90.6436,
    "MEAN_ANOMALY": 269.4719,
    "EPHEMERIS_TYPE": 0,
    "CLASSIFICATION_TYPE": "U",
    "NORAD_CAT_ID": 46073,
    "ELEMENT_SET_NO": 999,
    "REV_AT_EPOCH": 31057,
    "BSTAR": 5.51485e-07,
    "MEAN_MOTION_DOT": -2.73e-06,
    "MEAN_MOTION_DDOT": 0
  },
  {
    "OBJECT_NAME": "STARLINK-1549",
    "OBJECT_ID": "2020-055AZ",
    "EPOCH": "2026-03-18T03:41:49.293600",
    "MEAN_MOTION": 15.06396944,
    "ECCENTRICITY": 0.0001292,
    "INCLINATION": 53.0559,
    "RA_OF_ASC_NODE": 58.6203,
    "ARG_OF_PERICENTER": 95.3311,
    "MEAN_ANOMALY": 264.7825,
    "EPHEMERIS_TYPE": 0,
    "CLASSIFICATION_TYPE": "U",
    "NORAD_CAT_ID": 46074,
    "ELEMENT_SET_NO": 999,
    "REV_AT_EPOCH": 31057,
    "BSTAR": 5.022e-05,
    "MEAN_MOTION_DOT": 4.67e-06,
    "MEAN_MOTION_DDOT": 0
  },
  {
    "OBJECT_NAME": "STARLINK-1551",
    "OBJECT_ID": "2020-055BA",
    "EPOCH": "2026-03-18T02:43:26.736960",
    "MEAN_MOTION": 15.06375959,
    "ECCENTRICITY": 0.00013152,
    "INCLINATION": 53.0566,
    "RA_OF_ASC_NODE": 58.8027,
    "ARG_OF_PERICENTER": 95.2154,
    "MEAN_ANOMALY": 264.8985,
    "EPHEMERIS_TYPE": 0,
    "CLASSIFICATION_TYPE": "U",
    "NORAD_CAT_ID": 46075,
    "ELEMENT_SET_NO": 999,
    "REV_AT_EPOCH": 31057,
    "BSTAR": 9.6158047e-05,
    "MEAN_MOTION_DOT": 1.15e-05,
    "MEAN_MOTION_DDOT": 0
  },
  {
    "OBJECT_NAME": "STARLINK-1552",
    "OBJECT_ID": "2020-055BB",
    "EPOCH": "2026-03-18T03:20:35.863008",
    "MEAN_MOTION": 15.06389945,
    "ECCENTRICITY": 0.00014206,
    "INCLINATION": 53.0556,
    "RA_OF_ASC_NODE": 58.6867,
    "ARG_OF_PERICENTER": 89.5006,
    "MEAN_ANOMALY": 270.6146,
    "EPHEMERIS_TYPE": 0,
    "CLASSIFICATION_TYPE": "U",
    "NORAD_CAT_ID": 46076,
    "ELEMENT_SET_NO": 999,
    "REV_AT_EPOCH": 31056,
    "BSTAR": 6.2612619e-05,
    "MEAN_MOTION_DOT": 6.51e-06,
    "MEAN_MOTION_DDOT": 0
  },
  {
    "OBJECT_NAME": "STARLINK-1566",
    "OBJECT_ID": "2020-055BE",
    "EPOCH": "2026-03-18T03:47:07.558368",
    "MEAN_MOTION": 15.0640761,
    "ECCENTRICITY": 0.0001354,
    "INCLINATION": 53.0551,
    "RA_OF_ASC_NODE": 58.6031,
    "ARG_OF_PERICENTER": 97.1803,
    "MEAN_ANOMALY": 262.934,
    "EPHEMERIS_TYPE": 0,
    "CLASSIFICATION_TYPE": "U",
    "NORAD_CAT_ID": 46079,
    "ELEMENT_SET_NO": 999,
    "REV_AT_EPOCH": 31058,
    "BSTAR": 0.00011083,
    "MEAN_MOTION_DOT": 1.37e-05,
    "MEAN_MOTION_DDOT": 0
  },
  {
    "OBJECT_NAME": "STARLINK-1578",
    "OBJECT_ID": "2020-055BH",
    "EPOCH": "2026-03-18T02:32:49.992288",
    "MEAN_MOTION": 15.06393826,
    "ECCENTRICITY": 0.00011133,
    "INCLINATION": 53.0548,
    "RA_OF_ASC_NODE": 58.834,
    "ARG_OF_PERICENTER": 78.864,
    "MEAN_ANOMALY": 281.2474,
    "EPHEMERIS_TYPE": 0,
    "CLASSIFICATION_TYPE": "U",
    "NORAD_CAT_ID": 46082,
    "ELEMENT_SET_NO": 999,
    "REV_AT_EPOCH": 31057,
    "BSTAR": -6.2529179e-05,
    "MEAN_MOTION_DOT": -1.212e-05,
    "MEAN_MOTION_DDOT": 0
  }
]