STARLINK-1556           
1 46033U 20055G   26077.58334490  .00005684  00000+0  20924-3 0  9998
2 46033  53.1555  85.2572 0001864  68.2653 129.1051 15.29340997  5733
STARLINK-1557           
1 46034U 20055H   26077.58334490 -.00003727  00000+0 -11687-3 0  9993
2 46034  53.1550  85.1583 0001910  69.7898 161.9518 15.29360074  5807
STARLINK-1558           
1 46035U 20055J   26077.58334490  .00005381  00000+0  19866-3 0  9997
2 46035  53.1553  85.3420 0001203  77.0490  13.7468 15.29355373  5688
STARLINK-1560           
1 46036U 20055K   26077.40736489  .00005642  00000+0  20763-3 0  9991
2 46036  53.1559  86.0134 0001876  79.7241 280.3971 15.29371009310239
STARLINK-1569           
1 46039U 20055N   26077.58334490  .00073041  00000+0  25408-2 0  9997
2 46039  53.1506  85.3895 0001424  65.2630 340.2689 15.29070579  5681
STARLINK-1591           
1 46045U 20055U   26077.58334490  .00063986  00000+0  23217-2 0  9997
2 46045  53.1454  85.3619 0001468 105.0091 135.2700 15.27752206  5730
STARLINK-1525           
1 46066U 20055AR  26077.58334490  .00200038  00000+0  79800-2 0  9990
2 46066  53.0570  55.7670 0001657  93.0378 315.7543 15.23857766  5792
STARLINK-1536           
1 46070U 20055AV  26077.10980966  .00001384  00000+0  11180-3 0  9999
2 46070  53.0562  58.8196 0001361  91.3227 268.7918 15.06383617310580
STARLINK-1542           
1 46073U 20055AY  26077.10244377 -.00000273  00000+0  55149-6 0  9994
2 46073  53.0558  58.8518 0001447  90.6436 269.4719 15.06400448310573
STARLINK-1549           
1 46074U 20055AZ  26077.15404275  .00000467  00000+0  50220-4 0  9992
2 46074  53.0559  58.6203 0001292  95.3311 264.7825 15.06396944310577
STARLINK-1551           
1 46075U 20055BA  26077.11350390  .00001150  00000+0  96158-4 0  9997
2 46075  53.0566  58.8027 0001315  95.2154 264.8985 15.06375959310573
STARLINK-1552           
1 46076U 20055BB  26077.13930397  .00000651  00000+0  62613-4 0  9995
2 46076  53.0556  58.6867 0001420  89.5006 270.6146 15.06389945310565
STARLINK-1566           
1 46079U 20055BE  26077.15772637  .00001370  00000+0  11083-3 0  9994
2 46079  53.0551  58.6031 0001354  97.1803 262.9340 15.06407610310584
STARLINK-1578           
1 46082U 20055BH  26077.10613417 -.00001212  00000+0 -62529-4 0  9992
2 46082  53.0548  58.8340 0001113  78.8640 281.2474 15.06393826310571
